NORAD_CAT_ID,OBJECT_NAME,OBJECT_TYPE,EPOCH,MEAN_MOTION,ECCENTRICITY,INCLINATION,RA_OF_ASC_NODE,ARG_OF_PERICENTER,MEAN_ANOMALY,BSTAR,MEAN_MOTION_DOT,MEAN_MOTION_DDOT,TLE_LINE0,TLE_LINE1,TLE_LINE2,SEMIMAJOR_AXIS,PERIOD,APOGEE,PERIGEE,DECAYED
49741.0,STARLINK-3244,PAYLOAD,2021-12-19 21:12:49,15.40465948,0.0001433,53.2166,237.4552,47.749,312.3637,5.6416e-05,1.918e-05,0.0,0 STARLINK-3244,1 49741U 21115T   21353.88390213  .00001918  00000-0  56416-4 0  9998,2 49741  53.2166 237.4552 0001433  47.7490 312.3637 15.40465948  2766,6822.87,93.478,445.713,443.757,0.0
49741.0,STARLINK-3244,PAYLOAD,2021-12-20 14:00:01,15.40472928,0.0001469,53.215,234.1598,48.3231,232.8805,0.0014027,0.00057739,0.0,0 STARLINK-3244,1 49741U 21115T   21354.58334491  .00057739  00000-0  14027-2 0  9994,2 49741  53.2150 234.1598 0001469  48.3231 232.8805 15.40472928  3975,6822.85,93.478,445.717,443.712,0.0
49741.0,STARLINK-3244,PAYLOAD,2021-12-20 20:34:11,15.40480606,0.0001545,53.2154,232.8707,38.9584,321.1533,0.00011341,4.266e-05,0.0,0 STARLINK-3244,1 49741U 21115T   21354.85708039  .00004266  00000-0  11341-3 0  9991,2 49741  53.2154 232.8707 0001545  38.9584 321.1533 15.40480606  2912,6822.8269999999975,93.477,445.746,443.638,0.0
49741.0,STARLINK-3244,PAYLOAD,2021-12-21 06:00:02,15.40534177,0.0001635,53.2145,231.02,39.1929,341.3183,-0.0027504,-0.00112137,0.0,0 STARLINK-3244,1 49741U 21115T   21355.25002315 -.00112137  00000-0 -27504-2 0  9996,2 49741  53.2145 231.0200 0001635  39.1929 341.3183 15.40534177  4085,6822.669,93.474,445.649,443.418,0.0
49741.0,STARLINK-3244,PAYLOAD,2021-12-21 14:00:01,15.40426821,0.0001455,53.2144,229.4478,45.9848,24.0964,-0.0011162,-0.00045977,0.0,0 STARLINK-3244,1 49741U 21115T   21355.58334491 -.00045977  00000-0 -11162-2 0  9995,2 49741  53.2144 229.4478 0001455  45.9848  24.0964 15.40426821  3332,6822.986,93.481,445.843,443.858,0.0
49741.0,STARLINK-3244,PAYLOAD,2021-12-21 22:00:00,15.40380533,0.0001682,53.2141,227.8792,43.8348,75.7704,0.00034136,0.00013622,0.0,0 STARLINK-3244,1 49741U 21115T   21355.91667824  .00013622  00000-0  34136-3 0  9998,2 49741  53.2141 227.8792 0001682  43.8348  75.7704 15.40380533  3383,6823.121999999999,93.483,446.135,443.84,0.0
49741.0,STARLINK-3244,PAYLOAD,2021-12-22 06:00:00,15.40418611,0.0001683,53.2136,226.3083,43.2405,125.8675,0.00019329,7.542e-05,0.0,0 STARLINK-3244,1 49741U 21115T   21356.25001157  .00007542  00000-0  19329-3 0  9998,2 49741  53.2136 226.3083 0001683  43.2405 125.8675 15.40418611  4231,6823.01,93.481,446.023,443.727,0.0
49741.0,STARLINK-3244,PAYLOAD,2021-12-22 14:00:01,15.40452018,0.0001460999999999,53.2137,224.7362,47.9967,170.6947,0.00047757,0.00019279,0.0,0 STARLINK-3244,1 49741U 21115T   21356.58334491  .00019279  00000-0  47757-3 0  9990,2 49741  53.2137 224.7362 0001461  47.9967 170.6947 15.40452018  3487,6822.911,93.479,445.773,443.779,0.0
49741.0,STARLINK-3244,PAYLOAD,2021-12-22 20:00:01,15.40461298,0.0001601,53.2137,223.5597,44.8555,121.0278,-9.6719e-05,-4.378e-05,0.0,0 STARLINK-3244,1 49741U 21115T   21356.83334491 -.00004378  00000-0 -96719-4 0  9997,2 49741  53.2137 223.5597 0001601  44.8555 121.0278 15.40461298  4320,6822.884,93.478,445.841,443.657,0.0
49741.0,STARLINK-3244,PAYLOAD,2021-12-22 22:00:00,15.40454569,0.0001671,53.2136,223.1675,43.9601,224.322,0.00027429,0.0001089,0.0,0 STARLINK-3244,1 49741U 21115T   21356.91667824  .00010890  00000-0  27429-3 0  9990,2 49741  53.2136 223.1675 0001671  43.9601 224.3220 15.40454569  3530,6822.904,93.479,445.909,443.629,0.0
49741.0,STARLINK-3244,PAYLOAD,2021-12-23 14:00:01,15.40464298,0.0001465,53.2136,220.0243,48.776,318.6871,-1.5327e-05,-1.034e-05,0.0,0 STARLINK-3244,1 49741U 21115T   21357.58334491 -.00001034  00000-0 -15327-4 0  9992,2 49741  53.2136 220.0243 0001465  48.7760 318.6871 15.40464298  3637,6822.875,93.478,445.74,443.74,0.0
49741.0,STARLINK-3244,PAYLOAD,2021-12-23 22:00:00,15.40444632,0.0001665999999999,53.2138,218.4554,44.278,12.7757,-0.000353,-0.00014884,0.0,0 STARLINK-3244,1 49741U 21115T   21357.91667824 -.00014884  00000-0 -35300-3 0  9997,2 49741  53.2138 218.4554 0001666  44.2780  12.7757 15.40444632  4491,6822.933000000001,93.48,445.935,443.661,0.0
49741.0,STARLINK-3244,PAYLOAD,2021-12-24 14:00:01,15.40418009,0.0001605,53.2142,215.3123,51.7551,104.3999,0.0011675999999999,0.00047844,0.0,0 STARLINK-3244,1 49741U 21115T   21358.58334491  .00047844  00000-0  11676-2 0  9991,2 49741  53.2142 215.3123 0001605  51.7551 104.3999 15.40418009  3636,6823.012,93.481,445.972,443.782,0.0
49741.0,STARLINK-3244,PAYLOAD,2021-12-24 22:00:00,15.40447207,0.0001714,53.2168,213.7429,38.8283,166.9174,0.00047269,0.00019075,0.0,0 STARLINK-3244,1 49741U 21115T   21358.91667824  .00019075  00000-0  47269-3 0  9990,2 49741  53.2168 213.7429 0001714  38.8283 166.9174 15.40447207  4647,6822.925,93.479,445.96,443.621,0.0
49741.0,STARLINK-3244,PAYLOAD,2021-12-25 14:00:01,15.40462635,0.0001616,53.215,210.6002,47.4437,257.4986,0.00010916,4.088e-05,0.0,0 STARLINK-3244,1 49741U 21115T   21359.58334491  .00004088  00000-0  10916-3 0  9992,2 49741  53.2150 210.6002 0001616  47.4437 257.4986 15.40462635  3636,6822.88,93.478,445.848,443.642,0.0
49741.0,STARLINK-3244,PAYLOAD,2021-12-25 22:00:00,15.40459868,0.0001853,53.2151,209.0316,42.3696,312.1597,-0.00031882,-0.00013491,0.0,0 STARLINK-3244,1 49741U 21115T   21359.91667824 -.00013491  00000-0 -31882-3 0  9993,2 49741  53.2151 209.0316 0001853  42.3696 312.1597 15.40459868  4802,6822.888000000001,93.479,446.017,443.489,0.0
49741.0,STARLINK-3244,PAYLOAD,2021-12-26 14:00:01,15.40451872,0.0001683,53.2153,205.8885,45.9245,47.7635,0.00073547,0.00029951,0.0,0 STARLINK-3244,1 49741U 21115T   21360.58334491  .00029951  00000-0  73547-3 0  9999,2 49741  53.2153 205.8885 0001683  45.9245  47.7635 15.40451872  3630,6822.9119999999975,93.479,445.925,443.628,0.0
49741.0,STARLINK-3244,PAYLOAD,2021-12-26 22:00:00,15.40454386,0.0001885,53.2151,204.32,40.0953,103.1779,0.00039989,0.00016072,0.0,0 STARLINK-3244,1 49741U 21115T   21360.91667824  .00016072  00000-0  39989-3 0  9997,2 49741  53.2151 204.3200 0001885  40.0953 103.1779 15.40454386  4954,6822.904,93.479,446.055,443.483,0.0
49741.0,STARLINK-3244,PAYLOAD,2021-12-27 14:00:01,15.40450647,0.0001645,53.2149,201.1771,44.9054,197.5293,0.00040545,0.0001629999999999,0.0,0 STARLINK-3244,1 49741U 21115T   21361.58334491  .00016300  00000-0  40545-3 0  9996,2 49741  53.2149 201.1771 0001645  44.9054 197.5293 15.40450647  5054,6822.915,93.479,445.903,443.658,0.0
49741.0,STARLINK-3244,PAYLOAD,2021-12-27 22:00:00,15.40444067,0.0001893,53.2146,199.6085,39.6018,252.4202,0.00060918,0.00024715,0.0,0 STARLINK-3244,1 49741U 21115T   21361.91667824  .00024715  00000-0  60918-3 0  9997,2 49741  53.2146 199.6085 0001893  39.6018 252.4202 15.40444067  3638,6822.935,93.48,446.091,443.508,0.0
49741.0,STARLINK-3244,PAYLOAD,2021-12-28 14:00:01,15.40480194,0.0001656,53.2143,196.4656,45.6153,345.5855,0.00030709,0.00012253,0.0,0 STARLINK-3244,1 49741U 21115T   21362.58334491  .00012253  00000-0  30709-3 0  9991,2 49741  53.2143 196.4656 0001656  45.6153 345.5855 15.40480194  3660,6822.828,93.477,445.823,443.56300000000016,0.0
49741.0,STARLINK-3244,PAYLOAD,2021-12-28 22:00:00,15.40477941,0.0001816,53.2142,194.8968,38.9467,41.8729,-0.0004521,-0.0001896,0.0,0 STARLINK-3244,1 49741U 21115T   21362.91667824 -.00018960  00000-0 -45210-3 0  9993,2 49741  53.2142 194.8968 0001816  38.9467  41.8729 15.40477941  5268,6822.835,93.477,445.939,443.461,0.0
49741.0,STARLINK-3244,PAYLOAD,2021-12-29 14:00:01,15.40467503,0.0001678,53.2143,191.7537,46.1298,133.9496,-0.0005105999999999,-0.00021347,0.0,0 STARLINK-3244,1 49741U 21115T   21363.58335648 -.00021347  00000-0 -51060-3 0  9996,2 49741  53.2143 191.7537 0001678  46.1298 133.9496 15.40467503  3643,6822.866,93.478,445.875,443.586,0.0
49741.0,STARLINK-3244,PAYLOAD,2021-12-29 21:00:27,15.40460819,0.0001846,53.2147,190.3779,42.8007,317.3143,-2.8796e-06,-5.22e-06,0.0,0 STARLINK-3244,1 49741U 21115T   21363.87532349 -.00000522  00000-0 -28796-5 0  9999,2 49741  53.2147 190.3779 0001846  42.8007 317.3143 15.40460819  4302,6822.885,93.479,446.01,443.491,0.0
49741.0,STARLINK-3244,PAYLOAD,2021-12-30 06:00:00,15.40463422,0.0001797,53.2143,188.6129,42.8792,236.2963,-0.00029088,-0.00012347,0.0,0 STARLINK-3244,1 49741U 21115T   21364.25001157 -.00012347  00000-0 -29088-3 0  9991,2 49741  53.2143 188.6129 0001797  42.8792 236.2963 15.40463422  5463,6822.878000000002,93.478,445.969,443.517,0.0
49741.0,STARLINK-3244,PAYLOAD,2021-12-30 14:00:01,15.40475154,0.0001793,53.2144,187.042,46.7529,282.0018,-0.00012179,-5.411e-05,0.0,0 STARLINK-3244,1 49741U 21115T   21364.58334491 -.00005411  00000-0 -12179-3 0  9994,2 49741  53.2144 187.0420 0001793  46.7529 282.0018 15.40475154  3618,6822.843000000003,93.478,445.931,443.485,0.0
49741.0,STARLINK-3244,PAYLOAD,2021-12-30 20:21:51,15.40467717,0.0001876,53.2144,185.7922,43.7982,316.3172,6.9626e-05,2.461e-05,0.0,0 STARLINK-3244,1 49741U 21115T   21364.84850969  .00002461  00000-0  69626-4 0  9996,2 49741  53.2144 185.7922 0001876  43.7982 316.3172 15.40467717  4453,6822.865,93.478,446.01,443.45,0.0
49741.0,STARLINK-3244,PAYLOAD,2021-12-30 22:00:01,15.40454657,0.0001992,53.2144,185.4731,40.797,337.6298,0.00071894,0.00029269,0.0,0 STARLINK-3244,1 49741U 21115T   21364.91668981  .00029269  00000-0  71894-3 0  9999,2 49741  53.2144 185.4731 0001992  40.7970 337.6298 15.40454657  5579,6822.903,93.479,446.128,443.409,0.0
49741.0,STARLINK-3244,PAYLOAD,2021-12-31 12:00:00,15.40449642,0.0001816,53.2145,182.7223,44.5911,330.5598,0.00063694,0.00025868,0.0,0 STARLINK-3244,1 49741U 21115T   21365.50001157  .00025868  00000-0  63694-3 0  9991,2 49741  53.2145 182.7223 0001816  44.5911 330.5598 15.40449642  5661,6822.918000000002,93.479,446.022,443.544,0.0
